HXMT (HUIYAN)           
1 42758U 17034A   26093.26124035  .00010817  00000+0  52999-3 0  9997
2 42758  43.0138 240.0309 0031106  28.0079 332.2436 15.17788888486273
SAOCOM 1A               
1 43641U 18076A   26092.92928084 -.00000071  00000+0 -23372-5 0  9992
2 43641  97.8897 280.7601 0001344  86.3183 273.8184 14.82144894404953
H-2A R/B                
1 43682U 18084L   26093.19893561  .00032968  00000+0  75493-3 0  9994
2 43682  98.8687 315.8431 0023339 298.8704  61.0196 15.42442613409552
SAOCOM 1B               
1 46265U 20059A   26093.29808434  .00000811  00000+0  10839-3 0  9990
2 46265  97.8885 280.2201 0001482  83.8572 276.2810 14.82149434302396
CSS (TIANHE)            
1 48274U 21035A   26093.27849687  .00031513  00000+0  35412-3 0  9997
2 48274  41.4675  58.4057 0003772 112.9182 247.2056 15.61924300281453
COSMOS 2550             
1 48865U 21056A   26091.47039022  .00005639  00000+0  17705-3 0  9995
2 48865  67.1445 331.9738 0008328 269.3207  90.6993 15.33839536266954
CZ-2C R/B               
1 52794U 22058K   26092.99358680  .00064357  00000+0  86705-3 0  9994
2 52794  50.1880 193.0991 0041209 305.1850  54.5265 15.56162128213911
CZ-2C R/B               
1 54039U 22132E   26092.95658924  .00071067  00000+0  73914-3 0  9995
2 54039  97.2951  97.0516 0016229  10.2964 349.8625 15.64206842194162
GSLV R/B                
1 54149U 22138AN  26093.25549169  .00005377  00000+0  46318-3 0  9996
2 54149  87.3852 158.1372 0023799  65.8364 294.5352 14.96936789187601
XRISM                   
1 57800U 23137A   26092.80796138  .00009214  00000+0  52046-3 0  9992
2 57800  31.0012 127.6308 0007870 281.4500  78.5255 15.11792770141444
ACS3                    
1 59588U 24077B   26093.25717737  .00028837  00000+0  22508-1 0  9999
2 59588  97.1956  28.8477 0073303  21.0974 339.3187 13.90815069 97618
HTV-X1                  
1 66174U 25241A   26093.23510325  .00004760  00000+0  16087-3 0  9990
2 66174  51.6362 314.7548 0007278 267.5183  92.4966 15.32512226 24705
SZ-21 MODULE            
1 66515U 25246C   26093.25289166  .00060256  00000+0  47388-3 0  9992
2 66515  41.4748  51.9348 0002891 225.3271 134.7336 15.70567905 21932
